#dP2024 11  3 18  0  0.00000000      96 __u+U IGS20 EXT  IAC
## 2339  64800.00000000   900.00000000 60617 0.7500000000000
+   52   G02G03G04G05G06G07G08G09G10G11G12G13G14G15G16G17G18
+        G19G20G21G22G23G24G25G26G27G28G29G30G31G32R01R02R03
+        R04R05R07R08R09R11R12R14R15R16R17R18R19R20R21R22R24
+        R26  0  0  0  0  0  0  0  0  0  0  0  0  0  0  0  0
+          0  0  0  0  0  0  0  0  0  0  0  0  0  0  0  0  0
++         7  7  7  8  7  7  7  7  7  7  7  7  8  7  7  8  7
++         8  8  7  7  8  7  9  7  7  7  8  7  6  7  8  6  9
++        10  9  8  8  8 10  9  7  9  9  7  8  9  7  6  7  8
++         8  0  0  0  0  0  0  0  0  0  0  0  0  0  0  0  0
++         0  0  0  0  0  0  0  0  0  0  0  0  0  0  0  0  0
%c M  cc GPS ccc cccc cccc cccc cccc ccccc ccccc ccccc ccccc
%c cc cc ccc ccc cccc cccc cccc cccc ccccc ccccc ccccc ccccc
%f  0.0000000  0.000000000  0.00000000000  0.000000000000000
%f  0.0000000  0.000000000  0.00000000000  0.000000000000000
%i    0    0    0    0      0      0      0      0         0
%i    0    0    0    0      0      0      0      0         0
/* IAC                                ULTRA-RAPID PREDICTION
/* S/V CLOCKS ARE ALIGNED TO GNSS TIME                      
/* G:C1WC2W R:C1PC2P E:C1XC5X C:C2IC6I J:C1CC2S             
/* PCV:IGS20_2317 OL/AL:FES2004  NONE     YN ORB:CoN CLK:CoN
*  2024 11 04  9 30  0.00000000
PG02    663.786841  15206.849188 -21258.627953   -322.226243
PG03  10789.996957  21974.767942 -10602.069573    590.325515
PG04   1271.134052  23255.218819  12641.933971    473.588407
PG05   2960.602951 -16474.020527  20428.012703   -191.935122
PG06  26098.491063  -5218.534752   -556.188673    -88.593264
PG07  18055.330048   9026.503995  18016.894167    -22.357160
PG08  -5692.727710  25659.313504  -1448.378966    404.097952
PG09   9170.352636  16248.322571  18783.021068    428.419396
PG10 -20162.038199  -5934.530751 -16224.534388   -182.999787
PG11  19706.767385 -12507.110392  12650.326594   -748.384445
PG12  -5835.457655 -22227.020940 -13637.935129   -549.778657
PG13  13732.489629 -22083.763171   4503.473431    684.554966
PG14  21152.090502   9175.552409 -13338.918662    532.404817
PG15   1939.882053 -26345.302495  -2294.743718    223.714124
PG16  -9061.033421  12468.491326  21235.636082   -137.247503
PG17  15680.330551   -485.511411 -21041.265303    571.491048
PG18 -19395.301247  -7470.018934  16696.336983   -659.794272
PG19  17302.796446  -9972.107110 -17437.710106    558.696818
PG20  13125.899117  -8990.346251  21324.532570    369.047226
PG21  -5521.131342  16242.443939 -19563.094575     98.259136
PG22  18207.604300   2066.972923 -18714.837453    -76.716825
PG23 -20590.447806 -16253.910391  -4847.553747    356.048744
PG24   1025.468069 -16743.918106 -20980.476725   -482.047567
PG25 -17026.458705 -20420.663112  -2849.624120    499.224197
PG26 -17788.018203   3392.351777  19376.913988     37.910559
PG27 -12569.318088  21366.069082   8622.251378    -34.744044
PG28 -25967.720542   4753.345892  -2963.276655   -468.127852
PG29  -6712.740522 -17771.049795  18470.266041   -566.366487
PG30  24971.722800   1336.770404   9486.395855   -288.901444
PG31 -23220.144251  10534.379220   7844.849847   -222.334189
PG32 -16005.020689   3556.371070 -20635.201080   -578.337761
PR01 -10236.968259 -13933.924205 -18756.288781    103.303752
PR02 -10404.501798   4166.916842 -22867.887951    -25.505743
PR03  -5195.185488  20644.272622 -13959.345171    110.703499
PR04   2408.206036  25284.376523   2251.164989    262.414068
PR05   8827.181308  16531.455835  17294.265188    140.180130
PR07   5053.407696 -20999.739343  13653.546186     94.280581
PR08  -2714.129097 -25271.566200  -2365.824916     -6.313558
PR09  21690.532419   2585.540756 -13224.475110    218.576107
PR11  -7223.655375 -14009.342627 -20040.517345      7.665106
PR12 -21736.446786 -12729.503142  -4042.789352     46.850066
PR14  -8914.580711   7893.604208  22565.904494     27.175920
PR15   8811.695462  14494.258483  19070.241070     74.440492
PR16  21716.278441  12718.182271   4281.629616     30.512726
PR17 -17520.524891  16360.355550  -8773.900901    136.812542
PR18  -4350.696884  14008.854940 -20833.428688    170.214521
PR19   9415.467249   6303.112949 -22844.349550   -297.262766
PR20  22159.422408  -8095.059132  -9726.084343   -121.439300
PR21  18167.295170 -16024.238419   7943.343335   -148.427284
PR22   3297.098730 -13810.377917  21224.076662      0.550801
PR24 -21928.484196   9255.235926   9229.848547    -78.736846
PR26  -2099.646603 -25404.136902   -690.879203   -485.837221
*  2024 11 04  9 45  0.00000000
PG02  -1712.127424  15984.772500 -20602.659883   -322.218644
PG03   9759.598968  21132.583579 -13056.596336    590.335288
PG04    681.613754  24443.498530  10194.381028    473.594331
PG05   4797.863784 -14896.176899  21271.597631   -191.936172
PG06  25909.464229  -5002.181466  -3449.362043    -88.619035
PG07  16117.708970   9661.168365  19469.072480    -22.354712
PG08  -6001.785028  25577.795061   1413.083800    404.107597
PG09   8537.318936  18233.583762  17194.365085    428.434567
PG10 -21315.664787  -7263.264280 -14131.002270   -183.012496
PG11  21025.326743 -12581.144072  10206.034715   -748.386341
PG12  -4628.009962 -21109.307116 -15752.943833   -549.780965
PG13  13671.637930 -21342.281658   7287.792148    684.556481
PG14  21948.320260  10345.263341 -11022.406590    532.412234
PG15   2278.137255 -26357.132532    518.862764    223.718177
PG16 -10718.495860  10563.945209  21530.260661   -137.238682
PG17  14914.628315   1915.024559 -21485.860988    571.478433
PG18 -17488.358898  -8062.234675  18420.075758   -659.794926
PG19  16701.085061  -7982.501642 -19028.539108    558.700894
PG20  15043.695903  -7569.024621  20581.405347    369.046913
PG21  -7712.166938  16860.613351 -18184.405231     98.258352
PG22  19447.497885   3812.670526 -17133.421669    -76.719623
PG23 -20753.951456 -16651.412721  -1998.844335    356.055967
PG24   3195.512696 -17444.286827 -20119.661771   -482.045934
PG25 -16528.923734 -20299.094791  -5613.982375    499.224042
PG26 -19356.073810   1880.198809  18081.623651     37.899290
PG27 -12531.030174  20152.253336  11178.764141    -34.744062
PG28 -25563.015802   4371.908779  -5761.653875   -468.138820
PG29  -5905.269374 -19635.107749  16774.148377   -566.364030
PG30  23880.494336   1901.568171  11902.862049   -288.894495
PG31 -24019.922511  10484.073700   5154.153973   -222.333655
PG32 -15462.819214   1166.800089 -21321.977964   -578.333271
PR01 -10609.487065 -16091.973934 -16709.546344    103.304969
PR02 -10642.577202   1328.401923 -23103.979499    -25.505880
PR03  -5260.354935  18758.500079 -16384.508482    110.704157
PR04   2594.621252  25344.084355   -977.454907    262.415774
PR05   9123.457249  18506.704015  14981.951372    140.180707
PR07   5099.685869 -19166.793946  16112.044834     94.281264
PR08  -2891.605832 -25355.293707    850.241519     -6.313407
PR09  23075.522360   3065.603082 -10509.002491    218.578086
PR11  -4904.411504 -12920.746782 -21426.573468      7.664405
PR12 -21156.664168 -12327.517245  -7150.830582     46.850659
PR14 -11430.663093   6828.917267  21762.755389     27.176046
PR15   6604.172947  13434.916629  20671.701899     74.440125
PR16  21120.675297  12288.071173   7389.977439     30.513091
PR17 -18148.131389  17024.083720  -5709.035951    136.815637
PR18  -6338.138956  15495.384461 -19206.050881    170.216281
PR19   7003.334563   7821.024933 -23239.299409   -297.264191
PR20  20893.415626  -7514.311326 -12570.334989   -121.439775
PR21  18708.339486 -16628.410883   4831.011719   -148.430071
PR22   5369.838958 -15248.423208  19764.696312      0.540268
PR24 -20781.742402   8606.925727  12076.434454    -78.738169
PR26  -2253.143292 -25276.270928   2528.784878   -485.799248
EOF
